[Satellite]
VERSION=1.1
NAME=SL-8 R/B
NICKNAME=SL-8 R/B
TLE1=1 11574U 79089B   20157.90841085 -.00000005  00000-0  65839-5 0  9993
TLE2=2 11574  74.0709  16.6584 0015807   1.7604 358.3604 14.40755865133175
STATUS=0
